[{"OBJECT_NAME":"COSMOS 2576","OBJECT_ID":"2024-092A","EPOCH":"2026-03-09T19:49:29.705664","MEAN_MOTION":15.27760963,"ECCENTRICITY":0.0005946,"INCLINATION":97.4253,"RA_OF_ASC_NODE":186.0053,"ARG_OF_PERICENTER":159.7731,"MEAN_ANOMALY":200.3745,"EPHEMERIS_TYPE":0,"CLASSIFICATION_TYPE":"U","NORAD_CAT_ID":59773,"ELEMENT_SET_NO":999,"REV_AT_EPOCH":10127,"BSTAR":0.00056283,"MEAN_MOTION_DOT":0.00015211,"MEAN_MOTION_DDOT":0},{"OBJECT_NAME":"STARLINK-33562","OBJECT_ID":"2024-220Q","EPOCH":"2026-03-09T16:45:19.651104","MEAN_MOTION":15.27588869,"ECCENTRICITY":0.00019124,"INCLINATION":43.0044,"RA_OF_ASC_NODE":205.402,"ARG_OF_PERICENTER":282.2757,"MEAN_ANOMALY":77.7881,"EPHEMERIS_TYPE":0,"CLASSIFICATION_TYPE":"U","NORAD_CAT_ID":62102,"ELEMENT_SET_NO":999,"REV_AT_EPOCH":7302,"BSTAR":0.0011884904,"MEAN_MOTION_DOT":0.00032596,"MEAN_MOTION_DDOT":0}]
