COSMOS 2576             
1 59773U 24092A   26068.82603826  .00015211  00000+0  56283-3 0  9991
2 59773  97.4253 186.0053 0005946 159.7731 200.3745 15.27760963101271
STARLINK-33562          
1 62102U 24220Q   26068.69814410  .00032596  00000+0  11885-2 0  9995
2 62102  43.0044 205.4020 0001912 282.2757  77.7881 15.27588869 73026
